start=new Date('2022-09-22T00:00:00.000Z').valueOf();
sats=[{"LAUNCH_DATE":"2021-03-04","EPOCH":"2022-09-21T17:40:49.605600","PERIOD":"95.592","INCLINATION":"53.0561","COUNTRY_CODE":"US","SEMIMAJOR_AXIS":"6925.360","MEAN_ELEMENT_THEORY":"SGP4","MEAN_ANOMALY":"275.1427","NORAD_CAT_ID":"47732","FILE":"3579752","MEAN_MOTION":"15.06396133","RA_OF_ASC_NODE":"45.4629","MEAN_MOTION_DOT":"0.00001235","CENTER_NAME":"EARTH","EPHEMERIS_TYPE":"0","REF_FRAME":"TEME","MEAN_MOTION_DDOT":"0.0000000000000","ECCENTRICITY":"0.00014180","REV_AT_EPOCH":"8826","TLE_LINE1":"1 47732U 21017L   22264.73668525  .00001235  00000-0  10183-3 0  9999","APOAPSIS":"548.207","OBJECT_TYPE":"PAYLOAD","RCS_SIZE":"LARGE","ELEMENT_SET_NO":"999","TIME_SYSTEM":"UTC","SITE":"AFETR","TLE_LINE2":"2 47732  53.0561  45.4629 0001418  84.9724 275.1427 15.06396133 88262","BSTAR":"0.00010183000000","ARG_OF_PERICENTER":"84.9724","OBJECT_ID":"2021-017L","GP_ID":"213189519","CLASSIFICATION_TYPE":"U","DECAY_DATE":null,"OBJECT_NAME":"STARLINK-2142","PERIAPSIS":"546.243"},{"APOAPSIS":"548.584","MEAN_MOTION_DDOT":"0.0000000000000","ECCENTRICITY":"0.00019630","TLE_LINE1":"1 47733U 21017M   22264.35377718 -.00000834  00000-0 -37090-4 0  9992","REV_AT_EPOCH":"8692","EPHEMERIS_TYPE":"0","REF_FRAME":"TEME","FILE":"3579752","MEAN_MOTION":"15.06396546","NORAD_CAT_ID":"47733","RA_OF_ASC_NODE":"141.9366","MEAN_MOTION_DOT":"-0.00000834","CENTER_NAME":"EARTH","INCLINATION":"53.0540","COUNTRY_CODE":"US","SEMIMAJOR_AXIS":"6925.359","MEAN_ANOMALY":"281.5537","MEAN_ELEMENT_THEORY":"SGP4","LAUNCH_DATE":"2021-03-04","EPOCH":"2022-09-21T08:29:26.348352","PERIOD":"95.592","PERIAPSIS":"545.865","DECAY_DATE":null,"OBJECT_NAME":"STARLINK-2143","CLASSIFICATION_TYPE":"U","BSTAR":"-0.00003709000000","ARG_OF_PERICENTER":"78.5673","OBJECT_ID":"2021-017M","GP_ID":"213190771","TLE_LINE2":"2 47733  53.0540 141.9366 0001963  78.5673 281.5537 15.06396546 86929","ELEMENT_SET_NO":"999","SITE":"AFETR","TIME_SYSTEM":"UTC","RCS_SIZE":"LARGE","OBJECT_TYPE":"PAYLOAD"},{"APOAPSIS":"548.217","MEAN_MOTION_DDOT":"0.0000000000000","ECCENTRICITY":"0.00014390","TLE_LINE1":"1 47734U 21017N   22264.70486245  .00002059  00000-0  15709-3 0  9999","REV_AT_EPOCH":"8708","INCLINATION":"53.0541","COUNTRY_CODE":"US","MEAN_ANOMALY":"275.7599","SEMIMAJOR_AXIS":"6925.355","MEAN_ELEMENT_THEORY":"SGP4","LAUNCH_DATE":"2021-03-04","EPOCH":"2022-09-21T16:55:00.115680","PERIOD":"95.592","EPHEMERIS_TYPE":"0","REF_FRAME":"TEME","FILE":"3579752","NORAD_CAT_ID":"47734","MEAN_MOTION":"15.06397756","RA_OF_ASC_NODE":"130.3629","CENTER_NAME":"EARTH","MEAN_MOTION_DOT":"0.00002059","DECAY_DATE":null,"OBJECT_NAME":"STARLINK-2144","CLASSIFICATION_TYPE":"U","BSTAR":"0.00015709000000","ARG_OF_PERICENTER":"84.3555","OBJECT_ID":"2021-017N","GP_ID":"213190513","PERIAPSIS":"546.224","RCS_SIZE":"LARGE","OBJECT_TYPE":"PAYLOAD","TLE_LINE2":"2 47734  53.0541 130.3629 0001439  84.3555 275.7599 15.06397756 87082","ELEMENT_SET_NO":"999","SITE":"AFETR","TIME_SYSTEM":"UTC"},{"MEAN_ELEMENT_THEORY":"SGP4","SEMIMAJOR_AXIS":"6925.373","MEAN_ANOMALY":"292.6111","INCLINATION":"53.0564","COUNTRY_CODE":"US","EPOCH":"2022-09-21T10:56:06.313632","PERIOD":"95.593","LAUNCH_DATE":"2021-03-04","REF_FRAME":"TEME","EPHEMERIS_TYPE":"0","RA_OF_ASC_NODE":"56.6473","MEAN_MOTION_DOT":"-0.00000373","CENTER_NAME":"EARTH","NORAD_CAT_ID":"47735","FILE":"3579381","MEAN_MOTION":"15.06392149","APOAPSIS":"548.021","ECCENTRICITY":"0.00011310","TLE_LINE1":"1 47735U 21017P   22264.45562863 -.00000373  00000-0 -61817-5 0  9995","REV_AT_EPOCH":"8744","MEAN_MOTION_DDOT":"0.0000000000000","RCS_SIZE":"LARGE","OBJECT_TYPE":"PAYLOAD","TLE_LINE2":"2 47735  53.0564  56.6473 0001131  67.4998 292.6111 15.06392149 87446","ELEMENT_SET_NO":"999","SITE":"AFETR","TIME_SYSTEM":"UTC","CLASSIFICATION_TYPE":"U","DECAY_DATE":null,"OBJECT_NAME":"STARLINK-2146","OBJECT_ID":"2021-017P","GP_ID":"213160998","BSTAR":"-0.00000618170000","ARG_OF_PERICENTER":"67.4998","PERIAPSIS":"546.454"},{"FILE":"3579752","MEAN_MOTION":"15.06404651","NORAD_CAT_ID":"47736","CENTER_NAME":"EARTH","MEAN_MOTION_DOT":"-0.00000673","RA_OF_ASC_NODE":"120.2105","EPHEMERIS_TYPE":"0","REF_FRAME":"TEME","LAUNCH_DATE":"2021-03-04","EPOCH":"2022-09-21T17:44:05.906400","PERIOD":"95.592","COUNTRY_CODE":"US","INCLINATION":"53.0560","MEAN_ANOMALY":"298.2924","SEMIMAJOR_AXIS":"6925.334","MEAN_ELEMENT_THEORY":"SGP4","MEAN_MOTION_DDOT":"0.0000000000000","TLE_LINE1":"1 47736U 21017Q   22264.73895725 -.00000673  00000-0 -26252-4 0  9999","REV_AT_EPOCH":"8726","ECCENTRICITY":"0.00014150","APOAPSIS":"548.179","TIME_SYSTEM":"UTC","SITE":"AFETR","ELEMENT_SET_NO":"999","TLE_LINE2":"2 47736  53.0560 120.2105 0001415  61.8208 298.2924 15.06404651 87266","OBJECT_TYPE":"PAYLOAD","RCS_SIZE":"LARGE","PERIAPSIS":"546.219","ARG_OF_PERICENTER":"61.8208","BSTAR":"-0.00002625200000","GP_ID":"213190020","OBJECT_ID":"2021-017Q","DECAY_DATE":null,"CLASSIFICATION_TYPE":"U","OBJECT_NAME":"STARLINK-2147"},{"APOAPSIS":"470.825","MEAN_MOTION_DDOT":"0.0000000000000","ECCENTRICITY":"0.00015890","REV_AT_EPOCH":"8865","TLE_LINE1":"1 47737U 21017R   22264.59545506  .00002871  00000-0  10319-3 0  9999","INCLINATION":"53.0533","COUNTRY_CODE":"US","SEMIMAJOR_AXIS":"6847.872","MEAN_ELEMENT_THEORY":"SGP4","MEAN_ANOMALY":"291.7970","LAUNCH_DATE":"2021-03-04","EPOCH":"2022-09-21T14:17:27.317184","PERIOD":"93.993","EPHEMERIS_TYPE":"0","REF_FRAME":"TEME","MEAN_MOTION":"15.32037099","FILE":"3579752","NORAD_CAT_ID":"47737","RA_OF_ASC_NODE":"20.4979","MEAN_MOTION_DOT":"0.00002871","CENTER_NAME":"EARTH","OBJECT_NAME":"STARLINK-2148","DECAY_DATE":null,"CLASSIFICATION_TYPE":"U","BSTAR":"0.00010319000000","ARG_OF_PERICENTER":"68.3199","OBJECT_ID":"2021-017R","GP_ID":"213190271","PERIAPSIS":"468.649","RCS_SIZE":"LARGE","OBJECT_TYPE":"PAYLOAD","TLE_LINE2":"2 47737  53.0533  20.4979 0001589  68.3199 291.7970 15.32037099 88650","ELEMENT_SET_NO":"999","SITE":"AFETR","TIME_SYSTEM":"UTC"},{"REV_AT_EPOCH":"8719","TLE_LINE1":"1 47738U 21017S   22264.31510868  .00000195  00000-0  32000-4 0  9992","ECCENTRICITY":"0.00015300","MEAN_MOTION_DDOT":"0.0000000000000","APOAPSIS":"548.283","PERIOD":"95.592","EPOCH":"2022-09-21T07:33:45.389952","LAUNCH_DATE":"2021-03-04","SEMIMAJOR_AXIS":"6925.358","MEAN_ANOMALY":"284.2987","MEAN_ELEMENT_THEORY":"SGP4","COUNTRY_CODE":"US","INCLINATION":"53.0525","CENTER_NAME":"EARTH","MEAN_MOTION_DOT":"0.00000195","RA_OF_ASC_NODE":"122.3697","FILE":"3579752","MEAN_MOTION":"15.06396818","NORAD_CAT_ID":"47738","REF_FRAME":"TEME","EPHEMERIS_TYPE":"0","GP_ID":"213191014","OBJECT_ID":"2021-017S","ARG_OF_PERICENTER":"75.8172","BSTAR":"0.00003200000000","DECAY_DATE":null,"CLASSIFICATION_TYPE":"U","OBJECT_NAME":"STARLINK-2149","PERIAPSIS":"546.164","OBJECT_TYPE":"PAYLOAD","RCS_SIZE":"LARGE","SITE":"AFETR","TIME_SYSTEM":"UTC","ELEMENT_SET_NO":"999","TLE_LINE2":"2 47738  53.0525 122.3697 0001530  75.8172 284.2987 15.06396818 87192"},{"LAUNCH_DATE":"2021-03-04","PERIOD":"95.592","EPOCH":"2022-09-21T01:42:43.667136","COUNTRY_CODE":"US","INCLINATION":"53.0534","MEAN_ANOMALY":"279.1913","SEMIMAJOR_AXIS":"6925.345","MEAN_ELEMENT_THEORY":"SGP4","FILE":"3579752","MEAN_MOTION":"15.06401306","NORAD_CAT_ID":"47739","MEAN_MOTION_DOT":"-0.00000377","CENTER_NAME":"EARTH","RA_OF_ASC_NODE":"148.2116","EPHEMERIS_TYPE":"0","REF_FRAME":"TEME","MEAN_MOTION_DDOT":"0.0000000000000","TLE_LINE1":"1 47739U 21017T   22264.07133874 -.00000377  00000-0 -64398-5 0  9994","REV_AT_EPOCH":"8681","ECCENTRICITY":"0.00014390","APOAPSIS":"548.206","OBJECT_TYPE":"PAYLOAD","RCS_SIZE":"LARGE","TIME_SYSTEM":"UTC","SITE":"AFETR","ELEMENT_SET_NO":"999","TLE_LINE2":"2 47739  53.0534 148.2116 0001439  80.9239 279.1913 15.06401306 86814","ARG_OF_PERICENTER":"80.9239","BSTAR":"-0.00000643980000","GP_ID":"213189770","OBJECT_ID":"2021-017T","CLASSIFICATION_TYPE":"U","DECAY_DATE":null,"OBJECT_NAME":"STARLINK-2150","PERIAPSIS":"546.213"},{"OBJECT_TYPE":"PAYLOAD","RCS_SIZE":"LARGE","ELEMENT_SET_NO":"999","TIME_SYSTEM":"UTC","SITE":"AFETR","TLE_LINE2":"2 47740  53.0543 129.7189 0001332  70.0915 290.0218 15.06402580 87134","OBJECT_ID":"2021-017U","GP_ID":"213189520","BSTAR":"0.00001225200000","ARG_OF_PERICENTER":"70.0915","OBJECT_NAME":"STARLINK-2152","DECAY_DATE":null,"CLASSIFICATION_TYPE":"U","PERIAPSIS":"546.283","PERIOD":"95.592","EPOCH":"2022-09-21T20:22:00.387840","LAUNCH_DATE":"2021-03-04","MEAN_ANOMALY":"290.0218","SEMIMAJOR_AXIS":"6925.341","MEAN_ELEMENT_THEORY":"SGP4","INCLINATION":"53.0543","COUNTRY_CODE":"US","RA_OF_ASC_NODE":"129.7189","MEAN_MOTION_DOT":"-0.00000099","CENTER_NAME":"EARTH","FILE":"3579752","NORAD_CAT_ID":"47740","MEAN_MOTION":"15.06402580","REF_FRAME":"TEME","EPHEMERIS_TYPE":"0","ECCENTRICITY":"0.00013320","TLE_LINE1":"1 47740U 21017U   22264.84861560 -.00000099  00000-0  12252-4 0  9992","REV_AT_EPOCH":"8713","MEAN_MOTION_DDOT":"0.0000000000000","APOAPSIS":"548.128"},{"PERIAPSIS":"546.191","GP_ID":"213190772","OBJECT_ID":"2021-017V","ARG_OF_PERICENTER":"92.5103","BSTAR":"0.00009722300000","DECAY_DATE":null,"CLASSIFICATION_TYPE":"U","OBJECT_NAME":"STARLINK-2154","TIME_SYSTEM":"UTC","SITE":"AFETR","ELEMENT_SET_NO":"999","TLE_LINE2":"2 47741  53.0545 129.3586 0001486  92.5103 267.6056 15.06397789 87103","OBJECT_TYPE":"PAYLOAD","RCS_SIZE":"LARGE","REV_AT_EPOCH":"8710","TLE_LINE1":"1 47741U 21017V   22264.92970324  .00001167  00000-0  97223-4 0  9998","ECCENTRICITY":"0.00014860","MEAN_MOTION_DDOT":"0.0000000000000","APOAPSIS":"548.249","CENTER_NAME":"EARTH","MEAN_MOTION_DOT":"0.00001167","RA_OF_ASC_NODE":"129.3586","FILE":"3579752","NORAD_CAT_ID":"47741","MEAN_MOTION":"15.06397789","REF_FRAME":"TEME","EPHEMERIS_TYPE":"0","EPOCH":"2022-09-21T22:18:46.359936","PERIOD":"95.592","LAUNCH_DATE":"2021-03-04","MEAN_ELEMENT_THEORY":"SGP4","SEMIMAJOR_AXIS":"6925.355","MEAN_ANOMALY":"267.6056","COUNTRY_CODE":"US","INCLINATION":"53.0545"}];
